     2.11           N: GPS NAV DATA                         RINEX VERSION / TYPE
teqc  2018Dec12     gpsops              20220508 01:04:08UTCPGM / RUN BY / DATE
Linux 2.6.32-573.12.1.x86_64|x86_64|gcc -static|Linux 64|=+ COMMENT
CHPI                                    MARKER NAME         COMMENT
41609M003                               MARKER NUMBER       COMMENT
4164613.9484 -4162456.9866 -2445028.7316                    COMMENT
                                                            COMMENT
This data is provided as a public service by NASA/JPL.      COMMENT
No warranty is expressed or implied regarding suitability   COMMENT
for use.  For further information, contact:                 COMMENT
Dave Stowers, NASA/JPL m/s 238-600                          COMMENT
4800 Oak Grove Drive, Pasadena CA 91109 USA                 COMMENT
                                                            END OF HEADER
 8 22  5  7 10  0  0.0-6.700353696942D-05-1.591615728103D-12 0.000000000000D+00
    8.200000000000D+01 6.078125000000D+01 4.253748614275D-09-1.262944267132D+00
    3.198161721230D-06 7.441325229593D-03 5.250796675682D-06 5.153759672165D+03
    5.544000000000D+05 2.235174179077D-08 1.911182095811D+00-1.713633537292D-07
    9.635788702762D-01 2.820000000000D+02 1.633044158158D-01-7.992832933574D-09
   -7.000291590243D-11 1.000000000000D+00 2.208000000000D+03 0.000000000000D+00
    2.000000000000D+00 0.000000000000D+00 5.122274160385D-09 8.200000000000D+01
    5.499060000000D+05 4.000000000000D+00
31 22  5  7  9 59 44.0-1.765936613083D-04-1.591615728103D-12 0.000000000000D+00
    1.000000000000D+01 8.718750000000D+00 5.023066373734D-09 1.697445950603D+00
    6.705522537231D-07 1.042304793373D-02 7.454305887222D-06 5.153727041245D+03
    5.543840000000D+05-1.098960638046D-07-1.383473654659D-01 2.607703208923D-07
    9.553130071584D-01 2.360312500000D+02 3.884452392291D-01-8.175697693483D-09
   -1.700070814773D-10 1.000000000000D+00 2.208000000000D+03 0.000000000000D+00
    2.000000000000D+00 0.000000000000D+00-1.350417733192D-08 1.000000000000D+01
    5.530980000000D+05 4.000000000000D+00
21 22  5  7 10  0  0.0 1.609576866031D-04 2.273736754432D-13 0.000000000000D+00
    6.100000000000D+01-2.590625000000D+01 4.468043254793D-09-1.100628933156D+00
   -1.270323991776D-06 2.432771981694D-02 4.326924681664D-06 5.153758131027D+03
    5.544000000000D+05-3.408640623093D-07 2.899779742803D+00-3.539025783539D-08
    9.602832464631D-01 3.035000000000D+02-9.548551810939D-01-8.483210502625D-09
    2.742971398626D-10 1.000000000000D+00 2.208000000000D+03 0.000000000000D+00
    2.000000000000D+00 0.000000000000D+00-1.024454832077D-08 6.100000000000D+01
    5.531880000000D+05 4.000000000000D+00
27 22  5  7 12  0  0.0 1.986799761653D-04 6.821210263297D-12 0.000000000000D+00
    2.000000000000D+01 5.825000000000D+01 4.326251634317D-09-1.857889985604D-01
    3.101304173470D-06 1.053300965577D-02 5.684792995453D-06 5.153654409409D+03
    5.616000000000D+05 4.097819328308D-08 1.931232839302D+00 1.229345798492D-07
    9.723121079249D-01 2.722187500000D+02 6.773631817525D-01-8.177483482154D-09
   -1.617924535908D-10 1.000000000000D+00 2.208000000000D+03 0.000000000000D+00
    2.000000000000D+00 0.000000000000D+00 1.862645149231D-09 2.000000000000D+01
    5.544180000000D+05 4.000000000000D+00
32 22  5  7 12  0  0.0-1.216717064381D-04-8.526512829121D-12 0.000000000000D+00
    8.400000000000D+01-2.787500000000D+01 4.673051794222D-09 4.667932520869D-01
   -1.577660441399D-06 5.938427057117D-03 8.098781108856D-06 5.153592664719D+03
    5.616000000000D+05-3.911554813385D-08-1.217063144845D+00 7.636845111847D-08
    9.578144712630D-01 2.241875000000D+02-2.289797295043D+00-8.002476192397D-09
    3.150131215609D-10 1.000000000000D+00 2.208000000000D+03 0.000000000000D+00
    2.000000000000D+00 0.000000000000D+00 4.656612873077D-10 8.400000000000D+01
    5.544180000000D+05 4.000000000000D+00
22 22  5  7 12  0  0.0 2.552438527346D-04 6.139089236967D-12 0.000000000000D+00
    4.100000000000D+01-2.112500000000D+01 4.677694844766D-09-3.450122328129D-01
   -1.098960638046D-06 1.332108990755D-02 8.333474397659D-06 5.153684061050D+03
    5.616000000000D+05-1.080334186554D-07-1.126614903530D+00 1.415610313416D-07
    9.610951118692D-01 2.254062500000D+02-1.854145463915D+00-8.137124658189D-09
    3.739441477033D-10 1.000000000000D+00 2.208000000000D+03 0.000000000000D+00
    2.000000000000D+00 0.000000000000D+00-8.381903171539D-09 4.100000000000D+01
    5.544180000000D+05 4.000000000000D+00
10 22  5  7 12  0  0.0-4.055253230035D-04-1.398348103976D-11 0.000000000000D+00
    7.000000000000D+01-8.562500000000D+01 4.022667560251D-09 1.848096389821D+00
   -4.393979907036D-06 7.577045122162D-03 6.930902600288D-06 5.153685297012D+03
    5.616000000000D+05-1.322478055954D-07-2.259396255460D+00-1.303851604462D-08
    9.733819048063D-01 2.524062500000D+02-2.492920420165D+00-7.850684155364D-09
    1.096474243982D-10 1.000000000000D+00 2.208000000000D+03 0.000000000000D+00
    2.000000000000D+00 0.000000000000D+00 2.328306436539D-09 7.000000000000D+01
    5.544180000000D+05 4.000000000000D+00
 8 22  5  7 12  0  0.0-6.701517850161D-05-1.591615728103D-12 0.000000000000D+00
    8.300000000000D+01 6.068750000000D+01 4.414112436929D-09-2.128090676890D-01
    3.052875399590D-06 7.440693210810D-03 5.492940545082D-06 5.153758855820D+03
    5.616000000000D+05 1.080334186554D-07 1.911124619223D+00 3.725290298462D-08
    9.635772493630D-01 2.744062500000D+02 1.632953983888D-01-8.171411800672D-09
   -1.792931825664D-10 1.000000000000D+00 2.208000000000D+03 0.000000000000D+00
    2.000000000000D+00 0.000000000000D+00 5.122274160385D-09 8.300000000000D+01
    5.544180000000D+05 4.000000000000D+00
16 22  5  7 12  0  0.0-4.987297579646D-04-3.410605131648D-12 0.000000000000D+00
    4.600000000000D+01 4.634375000000D+01 4.444828002070D-09 7.383898407864D-01
    2.767890691757D-06 1.274916331749D-02 8.214265108109D-06 5.153645235062D+03
    5.616000000000D+05-1.154839992523D-07 9.745443702333D-01 1.396983861923D-07
    9.694187734174D-01 2.255312500000D+02 7.288746353885D-01-8.039977754488D-09
   -4.528760069606D-10 1.000000000000D+00 2.208000000000D+03 0.000000000000D+00
    2.000000000000D+00 0.000000000000D+00-1.024454832077D-08 4.600000000000D+01
    5.544180000000D+05 4.000000000000D+00
23 22  5  7 12  0  0.0-2.026138827205D-05-2.614797267597D-12 0.000000000000D+00
    9.400000000000D+01-8.537500000000D+01 4.098384999900D-09 3.133978840855D+00
   -4.218891263008D-06 2.102405880578D-03 6.657093763351D-06 5.153713098526D+03
    5.616000000000D+05-1.862645149231D-09-2.284661506076D+00 7.450580596924D-09
    9.684722902897D-01 2.533437500000D+02 3.002156594730D+00-7.872827934884D-09
    1.660783464012D-10 1.000000000000D+00 2.208000000000D+03 0.000000000000D+00
    2.000000000000D+00 0.000000000000D+00-8.381903171539D-09 8.620000000000D+02
    5.544180000000D+05 4.000000000000D+00
18 22  5  7 12  0  0.0 1.764777116477D-04-1.000444171950D-11 0.000000000000D+00
    5.600000000000D+01-1.937500000000D+01 4.173745281815D-09-2.079373540152D+00
   -1.028180122375D-06 2.274514525197D-03 3.585591912270D-06 5.153605585098D+03
    5.616000000000D+05-4.842877388000D-08 2.999396071240D+00 4.284083843231D-08
    9.716818447805D-01 3.171562500000D+02 3.042408554540D+00-8.070336161895D-09
    2.785830326729D-11 1.000000000000D+00 2.208000000000D+03 0.000000000000D+00
    2.000000000000D+00 0.000000000000D+00-8.381903171539D-09 5.680000000000D+02
    5.544180000000D+05 4.000000000000D+00
21 22  5  7 12  0  0.0 1.609595492482D-04 2.273736754432D-13 0.000000000000D+00
    6.200000000000D+01-2.078125000000D+01 4.509116394226D-09-5.050168467216D-02
   -1.171603798866D-06 2.432704553939D-02 4.064291715622D-06 5.153756971359D+03
    5.616000000000D+05-1.173466444016D-07 2.899720247388D+00-4.563480615616D-07
    9.602841198252D-01 3.072187500000D+02-9.548546266479D-01-8.554284891730D-09
   -8.321775206769D-11 1.000000000000D+00 2.208000000000D+03 0.000000000000D+00
    2.000000000000D+00 0.000000000000D+00-1.024454832077D-08 6.200000000000D+01
    5.544180000000D+05 4.000000000000D+00
26 22  5  7 12  0  0.0 2.039563842118D-04 2.614797267597D-12 0.000000000000D+00
    3.400000000000D+01 3.784375000000D+01 5.189859035603D-09 1.631047626081D+00
    2.197921276093D-06 6.926491041668D-03 8.141621947289D-06 5.153744386673D+03
    5.616000000000D+05-8.381903171539D-08 8.297499818459D-01 1.471489667892D-07
    9.379102243884D-01 2.120312500000D+02 3.916175961019D-01-8.287845222020D-09
   -3.921591921473D-10 1.000000000000D+00 2.208000000000D+03 0.000000000000D+00
    2.000000000000D+00 0.000000000000D+00 6.984919309616D-09 3.400000000000D+01
    5.544180000000D+05 4.000000000000D+00
31 22  5  7 11 59 44.0-1.766053028405D-04-1.591615728103D-12 0.000000000000D+00
    1.100000000000D+01 1.046875000000D+01 4.908061583323D-09 2.747619109845D+00
    5.271285772324D-07 1.042324362788D-02 7.426366209984D-06 5.153726482391D+03
    5.615840000000D+05-1.620501279831D-07-1.384062289007D-01-1.229345798492D-07
    9.553137166737D-01 2.348125000000D+02 3.884244248307D-01-7.859613098719D-09
   -4.643050544549D-12 1.000000000000D+00 2.208000000000D+03 0.000000000000D+00
    2.000000000000D+00 0.000000000000D+00-1.350417733192D-08 1.100000000000D+01
    5.544180000000D+05 4.000000000000D+00
 1 22  5  7 12  0  0.0 3.682817332447D-04-8.412825991400D-12 0.000000000000D+00
    6.500000000000D+01-3.284375000000D+01 3.684082028233D-09-2.398939066378D+00
   -1.642853021622D-06 1.185111748055D-02 3.993511199951D-06 5.153669261932D+03
    5.616000000000D+05 7.823109626770D-08 2.992790364131D+00-8.195638656616D-08
    9.878747606519D-01 3.160937500000D+02 9.008272304071D-01-7.662462029443D-09
    4.893060958486D-11 1.000000000000D+00 2.208000000000D+03 0.000000000000D+00
    2.000000000000D+00 0.000000000000D+00 5.122274160385D-09 6.500000000000D+01
    5.575080000000D+05 4.000000000000D+00
